H1 CPF 01  gfz 2021 09 19 12  7622 terrasarx 
H2 0702601  6201 31698    2021 09 19 12 59 42 2021 09 24 00 00 42   120 1 1  0 0 0
H9
10 0 59476  46782.000000  0    -940976.736  -5626254.482   3853150.890
10 0 59476  46902.000000  0   -1209235.500  -6040672.422   3074601.765
10 0 59476  47022.000000  0   -1462640.645  -6344911.218   2241912.645
10 0 59476  47142.000000  0   -1694786.758  -6533959.500   1369742.847
10 0 59476  47262.000000  0   -1899576.602  -6604948.840    473453.393
10 0 59476  47382.000000  0   -2071367.722  -6557199.575   -431171.860
10 0 59476  47502.000000  0   -2205110.511  -6392222.736  -1328213.008
10 0 59476  47622.000000  0   -2296474.641  -6113678.018  -2201902.681
10 0 59476  47742.000000  0   -2341960.771  -5727289.096  -3036910.626
10 0 59476  47862.000000  0   -2338994.353  -5240717.844  -3818618.171
10 0 59476  47982.000000  0   -2285999.054  -4663401.288  -4533375.442
10 0 59476  48102.000000  0   -2182448.651  -4006357.542  -5168736.262
10 0 59476  48222.000000  0   -2028897.038  -3281966.351  -5713668.040
10 0 59476  48342.000000  0   -1826986.016  -2503729.035  -6158734.658
10 0 59476  48462.000000  0   -1579430.252  -1686012.025  -6496249.567
10 0 59476  48582.000000  0   -1289980.480   -843780.299  -6720396.583
10 0 59476  48702.000000  0    -963366.886      7674.040  -6827319.358
10 0 59476  48822.000000  0    -605222.504    853003.901  -6815179.897
10 0 59476  48942.000000  0    -221987.448   1677076.635  -6684186.481
10 0 59476  49062.000000  0     179203.067   2465237.647  -6436590.428
10 0 59476  49182.000000  0     590647.469   3203565.929  -6076653.715
10 0 59476  49302.000000  0    1004222.397   3879118.112  -5610583.304
10 0 59476  49422.000000  0    1411538.451   4480155.032  -5046433.728
10 0 59476  49542.000000  0    1804106.380   4996349.897  -4393980.157
10 0 59476  49662.000000  0    2173510.850   5418973.594  -3664559.159
10 0 59476  49782.000000  0    2511587.595   5741051.292  -2870880.104
10 0 59476  49902.000000  0    2810600.990   5957488.602  -2026809.926
10 0 59476  50022.000000  0    3063418.047   6065163.038  -1147132.767
10 0 59476  50142.000000  0    3263673.536   6062977.161   -247288.443
10 0 59476  50262.000000  0    3405921.551   5951870.797    656904.284
10 0 59476  50382.000000  0    3485770.146   5734792.112   1549532.769
10 0 59476  50502.000000  0    3499996.071   5416629.203   2414878.361
10 0 59476  50622.000000  0    3446635.218   5004103.111   3237701.973
10 0 59476  50742.000000  0    3325047.583   4505622.656   4003520.144
10 0 59476  50862.000000  0    3135955.486   3931108.274   4698864.281
10 0 59476  50982.000000  0    2881450.353   3291787.618   5311521.879
10 0 59476  51102.000000  0    2564971.162   2599967.591   5830747.897
10 0 59476  51222.000000  0    2191258.583   1868792.288   6247448.280
10 0 59476  51342.000000  0    1766282.364   1111988.573   6554334.941
10 0 59476  51462.000000  0    1297142.942    343605.058   6746046.339
10 0 59476  51582.000000  0     791950.998   -422247.994   6819234.854
10 0 59476  51702.000000  0     259686.877  -1171657.173   6772623.190
10 0 59476  51822.000000  0    -289959.336  -1891158.947   6607025.278
10 0 59476  51942.000000  0    -846764.270  -2567981.469   6325332.418
10 0 59476  52062.000000  0   -1400160.299  -3190271.614   5932464.357
10 0 59476  52182.000000  0   -1939433.210  -3747303.303   5435288.411
10 0 59476  52302.000000  0   -2453929.373  -4229666.168   4842507.689
10 0 59476  52422.000000  0   -2933268.850  -4629431.138   4164515.764
10 0 59476  52542.000000  0   -3367558.124  -4940287.687   3413218.088
10 0 59476  52662.000000  0   -3747596.244  -5157649.508   2601823.622
10 0 59476  52782.000000  0   -4065070.431  -5278726.670   1744611.822
10 0 59476  52902.000000  0   -4312738.250  -5302562.525    856677.566
10 0 59476  53022.000000  0   -4484590.468  -5230033.168    -46341.065
10 0 59476  53142.000000  0   -4575990.680  -5063810.016   -948546.234
10 0 59476  53262.000000  0   -4583787.562  -4808285.757  -1834069.972
10 0 59476  53382.000000  0   -4506396.075  -4469464.667  -2687362.281
10 0 59476  53502.000000  0   -4343846.199  -4054821.181  -3493470.181
10 0 59476  53622.000000  0   -4097798.727  -3573131.913  -4238301.965
10 0 59476  53742.000000  0   -3771528.752  -3034285.726  -4908872.234
10 0 59476  53862.000000  0   -3369877.540  -2449076.038  -5493523.580
10 0 59476  53982.000000  0   -2899174.524  -1828981.158  -5982120.832
10 0 59476  54102.000000  0   -2367132.294  -1185937.481  -6366216.853
10 0 59476  54222.000000  0   -1782715.496   -532109.652  -6639187.622
10 0 59476  54342.000000  0   -1155987.333    120337.161  -6796334.250
10 0 59476  54462.000000  0    -497938.221    759458.229  -6834954.009
10 0 59476  54582.000000  0     179703.107   1373742.342  -6754382.008
10 0 59476  54702.000000  0     864672.544   1952313.263  -6556001.590
10 0 59476  54822.000000  0    1544387.679   2485118.572  -6243225.425
10 0 59476  54942.000000  0    2206174.409   2963102.480  -5821442.764
10 0 59476  55062.000000  0    2837499.705   3378359.925  -5297935.435
10 0 59476  55182.000000  0    3426206.440   3724268.830  -4681763.174
10 0 59476  55302.000000  0    3960748.294   3995600.665  -3983618.778
10 0 59476  55422.000000  0    4430419.723   4188605.060  -3215652.336
10 0 59476  55542.000000  0    4825575.645   4301066.223  -2391266.216
10 0 59476  55662.000000  0    5137834.467   4332329.109  -1524884.537
10 0 59476  55782.000000  0    5360261.110   4283294.852   -631700.445
10 0 59476  55902.000000  0    5487523.104   4156384.607    272594.232
10 0 59476  56022.000000  0    5516016.978   3955473.213   1172090.446
10 0 59476  56142.000000  0    5443961.769   3685792.328   2050950.098
10 0 59476  56262.000000  0    5271455.420   3353805.449   2893694.045
10 0 59476  56382.000000  0    5000491.858   2967059.307   3685483.303
10 0 59476  56502.000000  0    4634939.400   2534014.303   4412386.901
10 0 59476  56622.000000  0    4180481.472   2063858.303   5061628.590
10 0 59476  56742.000000  0    3644523.294   1566312.035   5621812.657
10 0 59476  56862.000000  0    3036062.067   1051426.133   6083122.156
10 0 59476  56982.000000  0    2365528.499    529376.084   6437484.149
10 0 59476  57102.000000  0    1644603.623     10261.988   6678703.581
10 0 59476  57222.000000  0     886013.013   -496085.545   6802567.466
10 0 59476  57342.000000  0     103299.750   -980291.521   6806914.640
10 0 59476  57462.000000  0    -689417.851  -1433609.510   6691670.136
10 0 59476  57582.000000  0   -1477700.420  -1848079.625   6458845.600
10 0 59476  57702.000000  0   -2247048.835  -2216667.933   6112504.928
10 0 59476  57822.000000  0   -2983168.779  -2533385.621   5658699.304
10 0 59476  57942.000000  0   -3672239.281  -2793389.181   5105370.169
10 0 59476  58062.000000  0   -4301177.545  -2993056.979   4462214.794
10 0 59476  58182.000000  0   -4857892.466  -3130040.273   3740520.177
10 0 59476  58302.000000  0   -5331523.211  -3203287.842   2952968.038
10 0 59476  58422.000000  0   -5712658.553  -3213044.624   2113413.646
10 0 59476  58542.000000  0   -5993531.813  -3160824.213   1236639.475
10 0 59476  58662.000000  0   -6168184.280  -3049353.926    338088.443
10 0 59476  58782.000000  0   -6232593.473  -2882494.012   -566415.467
10 0 59476  58902.000000  0   -6184763.671  -2665134.001  -1460955.362
10 0 59476  59022.000000  0   -6024773.594  -2403067.222  -2329811.416
10 0 59476  59142.000000  0   -5754781.641  -2102848.368  -3157743.549
10 0 59476  59262.000000  0   -5378990.587  -1771638.011  -3930262.682
10 0 59476  59382.000000  0   -4903571.979  -1417037.785  -4633884.687
10 0 59476  59502.000000  0   -4336553.869  -1046920.622  -5256362.732
10 0 59476  59622.000000  0   -3687673.767   -669259.590  -5786894.139
10 0 59476  59742.000000  0   -2968201.686   -291959.883  -6216297.795
10 0 59476  59862.000000  0   -2190738.173     77302.579  -6537161.301
10 0 59476  59982.000000  0   -1368990.650    431232.371  -6743957.411
10 0 59476  60102.000000  0    -517532.879    763053.372  -6833128.663
10 0 59476  60222.000000  0     348448.462   1066634.906  -6803141.229
10 0 59476  60342.000000  0    1213416.908   1336601.051  -6654508.833
10 0 59476  60462.000000  0    2061759.074   1568423.897  -6389787.373
10 0 59476  60582.000000  0    2878061.213   1758499.091  -6013535.477
10 0 59476  60702.000000  0    3647385.493   1904201.392  -5532243.190
10 0 59476  60822.000000  0    4355540.817   2003920.079  -4954230.656
10 0 59476  60942.000000  0    4989347.308   2057074.432  -4289516.363
10 0 59476  61062.000000  0    5536887.489   2064107.717  -3549653.293
10 0 59476  61182.000000  0    5987738.211   2026459.526  -2747536.734
10 0 59476  61302.000000  0    6333180.273   1946517.304  -1897185.758
10 0 59476  61422.000000  0    6566378.623   1827547.635  -1013498.934
10 0 59476  61542.000000  0    6682527.831   1673607.772   -111990.952
10 0 59476  61662.000000  0    6678958.301   1489439.487    791486.460
10 0 59476  61782.000000  0    6555199.253   1280348.823   1681029.580
10 0 59476  61902.000000  0    6313000.872   1052073.908   2540971.619
10 0 59476  62022.000000  0    5956308.710    810643.466   3356167.951
10 0 59476  62142.000000  0    5491194.821    562231.242   4112269.960
10 0 59476  62262.000000  0    4925745.051    313009.142   4795981.628
10 0 59476  62382.000000  0    4269910.017     69004.166   5395294.306
10 0 59476  62502.000000  0    3535319.444   -164039.928   5899697.234
10 0 59476  62622.000000  0    2735066.018   -380790.332   6300356.529
10 0 59476  62742.000000  0    1883465.961   -576440.750   6590263.929
10 0 59476  62862.000000  0     995798.945   -746813.403   6764354.349
10 0 59476  62982.000000  0      88030.464   -888445.430   6819589.463
10 0 59476  63102.000000  0    -823475.927   -998657.514   6755006.102
10 0 59476  63222.000000  0   -1722252.518  -1075604.488   6571731.227
99
